ONEWEB-0228             
1 48780U 21045P   24203.54445324  .00000094  00000+0  21730-3 0  9999
2 48780  87.9013  37.6091 0001767  82.8939 277.2392 13.15070352152864
